{"type": "FeatureCollection", "features": [ {"type": "Feature", "properties": {"norad_id": 57401, "name": "TIANMU-1 09", "group": "weather", "lat": -35.43827942798252, "lon": 31.97300422003464, "alt_km": 492.3558511192314, "timestamp": "2025-12-03T08:58:45.641668+00:00", "meta": {"OBJECT_NAME": "TIANMU-1 09", "OBJECT_ID": "2023-101C", "EPOCH": "2025-12-03T04:25:12.746784", "MEAN_MOTION": 15.27856746, "ECCENTRICITY": 0.0006742, "INCLINATION": 97.2841, "RA_OF_ASC_NODE": 26.5645, "ARG_OF_PERICENTER": 109.8324, "MEAN_ANOMALY": 250.3643, "EPHEMERIS_TYPE": 0, "CLASSIFICATION_TYPE": "U", "NORAD_CAT_ID": 57401, "ELEMENT_SET_NO": 999, "REV_AT_EPOCH": 13169, "BSTAR": 0.00037115, "MEAN_MOTION_DOT": 0.00010032, "MEAN_MOTION_DDOT": 0}, "tle": {"line1": "1 57401U 23101C   25337.18417531  .00010032  00000+0  37115-3 0  9999", "line2": "2 57401  97.2841  26.5645 0006742 109.8324 250.3643 15.27856746131698"}}, "geometry": {"type": "Point", "coordinates": [31.97300422003464, -35.43827942798252]}}, {"type": "Feature", "properties": {"norad_id": 57402, "name": "TIANMU-1 10", "group": "weather", "lat": 42.82784173202975, "lon": -145.59319630468337, "alt_km": 473.5535858114008, "timestamp": "2025-12-03T08:58:45.641680+00:00", "meta": {"OBJECT_NAME": "TIANMU-1 10", "OBJECT_ID": "2023-101D", "EPOCH": "2025-12-03T03:40:05.729376", "MEAN_MOTION": 15.27846873, "ECCENTRICITY": 0.000848, "INCLINATION": 97.2922, "RA_OF_ASC_NODE": 27.3735, "ARG_OF_PERICENTER": 111.2032, "MEAN_ANOMALY": 249.0114, "EPHEMERIS_TYPE": 0, "CLASSIFICATION_TYPE": "U", "NORAD_CAT_ID": 57402, "ELEMENT_SET_NO": 999, "REV_AT_EPOCH": 13168, "BSTAR": 0.00038387, "MEAN_MOTION_DOT": 0.00010379, "MEAN_MOTION_DDOT": 0}, "tle": {"line1": "1 57402U 23101D   25337.15284409  .00010379  00000+0  38387-3 0  9999", "line2": "2 57402  97.2922  27.3735 0008480 111.2032 249.0114 15.27846873131689"}}, "geometry": {"type": "Point", "coordinates": [-145.59319630468337, 42.82784173202975]}}, {"type": "Feature", "properties": {"norad_id": 57490, "name": "FENGYUN 3F", "group": "weather", "lat": 71.75816777240689, "lon": 18.102428711892337, "alt_km": 818.2914443645695, "timestamp": "2025-12-03T08:58:45.641693+00:00", "meta": {"OBJECT_NAME": "FENGYUN 3F", "OBJECT_ID": "2023-111A", "EPOCH": "2025-12-03T03:33:31.989888", "MEAN_MOTION": 14.19889358, "ECCENTRICITY": 6.95e-05, "INCLINATION": 98.7095, "RA_OF_ASC_NODE": 45.596, "ARG_OF_PERICENTER": 85.7511, "MEAN_ANOMALY": 274.3745, "EPHEMERIS_TYPE": 0, "CLASSIFICATION_TYPE": "U", "NORAD_CAT_ID": 57490, "ELEMENT_SET_NO": 999, "REV_AT_EPOCH": 12104, "BSTAR": 8.5645e-05, "MEAN_MOTION_DOT": 1.38e-06, "MEAN_MOTION_DDOT": 0}, "tle": {"line1": "1 57490U 23111A   25337.14828692  .00000138  00000+0  85645-4 0  9996", "line2": "2 57490  98.7095  45.5960 0000695  85.7511 274.3745 14.19889358121047"}}, "geometry": {"type": "Point", "coordinates": [18.102428711892337, 71.75816777240689]}}, {"type": "Feature", "properties": {"norad_id": 58584, "name": "ARKTIKA-M 2", "group": "weather", "lat": 19.776911907469316, "lon": -173.62637710104036, "alt_km": 13164.573674433926, "timestamp": "2025-12-03T08:58:45.641706+00:00", "meta": {"OBJECT_NAME": "ARKTIKA-M 2", "OBJECT_ID": "2023-198A", "EPOCH": "2025-12-01T08:43:04.634112", "MEAN_MOTION": 2.00605427, "ECCENTRICITY": 0.68640288, "INCLINATION": 63.2218, "RA_OF_ASC_NODE": 176.1298, "ARG_OF_PERICENTER": 268.1507, "MEAN_ANOMALY": 18.8441, "EPHEMERIS_TYPE": 0, "CLASSIFICATION_TYPE": "U", "NORAD_CAT_ID": 58584, "ELEMENT_SET_NO": 999, "REV_AT_EPOCH": 1435, "BSTAR": 0, "MEAN_MOTION_DOT": 2.37e-06, "MEAN_MOTION_DDOT": 0}, "tle": {"line1": "1 58584U 23198A   25335.36324808  .00000237  00000+0  00000+0 0  9995", "line2": "2 58584  63.2218 176.1298 6864028 268.1507  18.8441  2.00605427 14356"}}, "geometry": {"type": "Point", "coordinates": [-173.62637710104036, 19.776911907469316]}}, {"type": "Feature", "properties": {"norad_id": 58645, "name": "TIANMU-1 11", "group": "weather", "lat": 70.70155610373668, "lon": -24.502705331606876, "alt_km": 485.19370125952446, "timestamp": "2025-12-03T08:58:45.641718+00:00", "meta": {"OBJECT_NAME": "TIANMU-1 11", "OBJECT_ID": "2023-205A", "EPOCH": "2025-12-03T03:56:18.074112", "MEAN_MOTION": 15.24412561, "ECCENTRICITY": 0.0008875, "INCLINATION": 97.3613, "RA_OF_ASC_NODE": 356.9573, "ARG_OF_PERICENTER": 347.8436, "MEAN_ANOMALY": 12.2586, "EPHEMERIS_TYPE": 0, "CLASSIFICATION_TYPE": "U", "NORAD_CAT_ID": 58645, "ELEMENT_SET_NO": 999, "REV_AT_EPOCH": 10763, "BSTAR": 0.00033723, "MEAN_MOTION_DOT": 8.209e-05, "MEAN_MOTION_DDOT": 0}, "tle": {"line1": "1 58645U 23205A   25337.16409808  .00008209  00000+0  33723-3 0  9995", "line2": "2 58645  97.3613 356.9573 0008875 347.8436  12.2586 15.24412561107632"}}, "geometry": {"type": "Point", "coordinates": [-24.502705331606876, 70.70155610373668]}}, {"type": "Feature", "properties": {"norad_id": 58646, "name": "TIANMU-1 12", "group": "weather", "lat": -70.95377079668792, "lon": 18.960027484178205, "alt_km": 496.889248792344, "timestamp": "2025-12-03T08:58:45.641729+00:00", "meta": {"OBJECT_NAME": "TIANMU-1 12", "OBJECT_ID": "2023-205B", "EPOCH": "2025-12-03T04:34:10.839072", "MEAN_MOTION": 15.24326061, "ECCENTRICITY": 0.0006664, "INCLINATION": 97.36, "RA_OF_ASC_NODE": 356.7917, "ARG_OF_PERICENTER": 333.5855, "MEAN_ANOMALY": 26.5042, "EPHEMERIS_TYPE": 0, "CLASSIFICATION_TYPE": "U", "NORAD_CAT_ID": 58646, "ELEMENT_SET_NO": 999, "REV_AT_EPOCH": 10762, "BSTAR": 0.00035716, "MEAN_MOTION_DOT": 8.672e-05, "MEAN_MOTION_DDOT": 0}, "tle": {"line1": "1 58646U 23205B   25337.19040323  .00008672  00000+0  35716-3 0  9990", "line2": "2 58646  97.3600 356.7917 0006664 333.5855  26.5042 15.24326061107623"}}, "geometry": {"type": "Point", "coordinates": [18.960027484178205, -70.95377079668792]}}, {"type": "Feature", "properties": {"norad_id": 58647, "name": "TIANMU-1 13", "group": "weather", "lat": 75.16745573307955, "lon": -153.6026866018387, "alt_km": 489.6008500519092, "timestamp": "2025-12-03T08:58:45.641739+00:00", "meta": {"OBJECT_NAME": "TIANMU-1 13", "OBJECT_ID": "2023-205C", "EPOCH": "2025-12-03T03:48:11.238624", "MEAN_MOTION": 15.24331398, "ECCENTRICITY": 0.0006423, "INCLINATION": 97.3628, "RA_OF_ASC_NODE": 356.9574, "ARG_OF_PERICENTER": 310.3492, "MEAN_ANOMALY": 49.7184, "EPHEMERIS_TYPE": 0, "CLASSIFICATION_TYPE": "U", "NORAD_CAT_ID": 58647, "ELEMENT_SET_NO": 999, "REV_AT_EPOCH": 10761, "BSTAR": 0.00035514, "MEAN_MOTION_DOT": 8.624e-05, "MEAN_MOTION_DDOT": 0}, "tle": {"line1": "1 58647U 23205C   25337.15846341  .00008624  00000+0  35514-3 0  9994", "line2": "2 58647  97.3628 356.9574 0006423 310.3492  49.7184 15.24331398107610"}}, "geometry": {"type": "Point", "coordinates": [-153.6026866018387, 75.16745573307955]}}, {"type": "Feature", "properties": {"norad_id": 58648, "name": "TIANMU-1 14", "group": "weather", "lat": -14.364707498269464, "lon": 174.63061548446973, "alt_km": 500.047681741441, "timestamp": "2025-12-03T08:58:45.641750+00:00", "meta": {"OBJECT_NAME": "TIANMU-1 14", "OBJECT_ID": "2023-205D", "EPOCH": "2025-12-03T03:24:08.072640", "MEAN_MOTION": 15.24316033, "ECCENTRICITY": 0.0007322, "INCLINATION": 97.356, "RA_OF_ASC_NODE": 356.2985, "ARG_OF_PERICENTER": 314.5275, "MEAN_ANOMALY": 45.5364, "EPHEMERIS_TYPE": 0, "CLASSIFICATION_TYPE": "U", "NORAD_CAT_ID": 58648, "ELEMENT_SET_NO": 999, "REV_AT_EPOCH": 10761, "BSTAR": 0.00036532, "MEAN_MOTION_DOT": 8.87e-05, "MEAN_MOTION_DDOT": 0}, "tle": {"line1": "1 58648U 23205D   25337.14176010  .00008870  00000+0  36532-3 0  9997", "line2": "2 58648  97.3560 356.2985 0007322 314.5275  45.5364 15.24316033107612"}}, "geometry": {"type": "Point", "coordinates": [174.63061548446973, -14.364707498269464]}}, {"type": "Feature", "properties": {"norad_id": 58660, "name": "TIANMU-1 19", "group": "weather", "lat": -21.685991355748506, "lon": 91.41032937178953, "alt_km": 486.44089523062485, "timestamp": "2025-12-03T08:58:45.641760+00:00", "meta": {"OBJECT_NAME": "TIANMU-1 19", "OBJECT_ID": "2023-208A", "EPOCH": "2025-12-03T05:55:50.193408", "MEAN_MOTION": 15.27571648, "ECCENTRICITY": 0.0004097, "INCLINATION": 97.4393, "RA_OF_ASC_NODE": 88.3051, "ARG_OF_PERICENTER": 295.4884, "MEAN_ANOMALY": 64.5931, "EPHEMERIS_TYPE": 0, "CLASSIFICATION_TYPE": "U", "NORAD_CAT_ID": 58660, "ELEMENT_SET_NO": 999, "REV_AT_EPOCH": 10737, "BSTAR": 0.0004846, "MEAN_MOTION_DOT": 0.00013004, "MEAN_MOTION_DDOT": 0}, "tle": {"line1": "1 58660U 23208A   25337.24710872  .00013004  00000+0  48460-3 0  9993", "line2": "2 58660  97.4393  88.3051 0004097 295.4884  64.5931 15.27571648107379"}}, "geometry": {"type": "Point", "coordinates": [91.41032937178953, -21.685991355748506]}}, {"type": "Feature", "properties": {"norad_id": 58661, "name": "TIANMU-1 20", "group": "weather", "lat": 12.185654693855225, "lon": 87.25477184835803, "alt_km": 479.1613944975652, "timestamp": "2025-12-03T08:58:45.641770+00:00", "meta": {"OBJECT_NAME": "TIANMU-1 20", "OBJECT_ID": "2023-208B", "EPOCH": "2025-12-03T04:12:47.005056", "MEAN_MOTION": 15.28762421, "ECCENTRICITY": 0.0006469, "INCLINATION": 97.4329, "RA_OF_ASC_NODE": 88.672, "ARG_OF_PERICENTER": 305.8023, "MEAN_ANOMALY": 54.2615, "EPHEMERIS_TYPE": 0, "CLASSIFICATION_TYPE": "U", "NORAD_CAT_ID": 58661, "ELEMENT_SET_NO": 999, "REV_AT_EPOCH": 10743, "BSTAR": 0.00045364, "MEAN_MOTION_DOT": 0.00012623, "MEAN_MOTION_DDOT": 0}, "tle": {"line1": "1 58661U 23208B   25337.17554404  .00012623  00000+0  45364-3 0  9999", "line2": "2 58661  97.4329  88.6720 0006469 305.8023  54.2615 15.28762421107435"}}, "geometry": {"type": "Point", "coordinates": [87.25477184835803, 12.185654693855225]}}]}